[{"OBJECT_NAME":"FREGAT R/B","OBJECT_ID":"2022-030B","EPOCH":"2026-03-14T07:15:12.155328","MEAN_MOTION":2.00100965,"ECCENTRICITY":0.68409869,"INCLINATION":62.6587,"RA_OF_ASC_NODE":145.4619,"ARG_OF_PERICENTER":274.4749,"MEAN_ANOMALY":16.6376,"EPHEMERIS_TYPE":0,"CLASSIFICATION_TYPE":"U","NORAD_CAT_ID":52146,"ELEMENT_SET_NO":999,"REV_AT_EPOCH":2911,"BSTAR":0,"MEAN_MOTION_DOT":1.15e-5,"MEAN_MOTION_DDOT":0},{"OBJECT_NAME":"ZHONGXING-6D","OBJECT_ID":"2022-038A","EPOCH":"2026-03-13T04:17:02.012928","MEAN_MOTION":1.0026584,"ECCENTRICITY":0.00020526,"INCLINATION":0.0313,"RA_OF_ASC_NODE":195.5655,"ARG_OF_PERICENTER":117.1283,"MEAN_ANOMALY":47.2889,"EPHEMERIS_TYPE":0,"CLASSIFICATION_TYPE":"U","NORAD_CAT_ID":52255,"ELEMENT_SET_NO":999,"REV_AT_EPOCH":1446,"BSTAR":0,"MEAN_MOTION_DOT":0,"MEAN_MOTION_DDOT":0},{"OBJECT_NAME":"NILESAT 301","OBJECT_ID":"2022-061A","EPOCH":"2026-03-15T05:00:47.617344","MEAN_MOTION":1.00269246,"ECCENTRICITY":0.00057603,"INCLINATION":0.0228,"RA_OF_ASC_NODE":31.1303,"ARG_OF_PERICENTER":326.9366,"MEAN_ANOMALY":242.9544,"EPHEMERIS_TYPE":0,"CLASSIFICATION_TYPE":"U","NORAD_CAT_ID":52817,"ELEMENT_SET_NO":999,"REV_AT_EPOCH":1379,"BSTAR":0,"MEAN_MOTION_DOT":0,"MEAN_MOTION_DDOT":0},{"OBJECT_NAME":"FALCON 9 R/B","OBJECT_ID":"2022-061B","EPOCH":"2026-03-14T01:19:52.294368","MEAN_MOTION":1.81980758,"ECCENTRICITY":0.76367678,"INCLINATION":18.8022,"RA_OF_ASC_NODE":0.0772,"ARG_OF_PERICENTER":202.6474,"MEAN_ANOMALY":85.812,"EPHEMERIS_TYPE":0,"CLASSIFICATION_TYPE":"U","NORAD_CAT_ID":52818,"ELEMENT_SET_NO":999,"REV_AT_EPOCH":2459,"BSTAR":0.0017002438,"MEAN_MOTION_DOT":9.9e-6,"MEAN_MOTION_DDOT":0},{"OBJECT_NAME":"CMS-02 (GSAT 24)","OBJECT_ID":"2022-067A","EPOCH":"2026-03-14T22:35:47.038560","MEAN_MOTION":1.00270611,"ECCENTRICITY":0.00021428,"INCLINATION":0.0185,"RA_OF_ASC_NODE":216.3743,"ARG_OF_PERICENTER":87.8806,"MEAN_ANOMALY":290.2338,"EPHEMERIS_TYPE":0,"CLASSIFICATION_TYPE":"U","NORAD_CAT_ID":52903,"ELEMENT_SET_NO":999,"REV_AT_EPOCH":1366,"BSTAR":0,"MEAN_MOTION_DOT":-1.65e-6,"MEAN_MOTION_DDOT":0},{"OBJECT_NAME":"MEASAT 3D","OBJECT_ID":"2022-067B","EPOCH":"2026-03-15T02:03:34.612128","MEAN_MOTION":1.00271467,"ECCENTRICITY":0.00030487,"INCLINATION":0.0488,"RA_OF_ASC_NODE":330.0721,"ARG_OF_PERICENTER":10.3055,"MEAN_ANOMALY":314.7232,"EPHEMERIS_TYPE":0,"CLASSIFICATION_TYPE":"U","NORAD_CAT_ID":52904,"ELEMENT_SET_NO":999,"REV_AT_EPOCH":1370,"BSTAR":0,"MEAN_MOTION_DOT":-2.42e-6,"MEAN_MOTION_DDOT":0},{"OBJECT_NAME":"SES-22","OBJECT_ID":"2022-071A","EPOCH":"2026-03-15T04:23:13.718688","MEAN_MOTION":1.00273792,"ECCENTRICITY":9.874e-5,"INCLINATION":0.0175,"RA_OF_ASC_NODE":99.6203,"ARG_OF_PERICENTER":255.9997,"MEAN_ANOMALY":103.9659,"EPHEMERIS_TYPE":0,"CLASSIFICATION_TYPE":"U","NORAD_CAT_ID":52933,"ELEMENT_SET_NO":999,"REV_AT_EPOCH":658,"BSTAR":0,"MEAN_MOTION_DOT":1.03e-6,"MEAN_MOTION_DDOT":0},{"OBJECT_NAME":"WFOV (USA 332)","OBJECT_ID":"2022-073A","EPOCH":"2026-03-14T23:43:38.648064","MEAN_MOTION":1.00269197,"ECCENTRICITY":0.00012904,"INCLINATION":3.4675,"RA_OF_ASC_NODE":79.7366,"ARG_OF_PERICENTER":224.9909,"MEAN_ANOMALY":343.0202,"EPHEMERIS_TYPE":0,"CLASSIFICATION_TYPE":"U","NORAD_CAT_ID":52940,"ELEMENT_SET_NO":999,"REV_AT_EPOCH":1342,"BSTAR":0,"MEAN_MOTION_DOT":-3.61e-6,"MEAN_MOTION_DDOT":0},{"OBJECT_NAME":"ATLAS 5 CENTAUR DEB","OBJECT_ID":"2018-079GX","EPOCH":"2026-03-14T13:32:54.278304","MEAN_MOTION":1.71412319,"ECCENTRICITY":0.4541933,"INCLINATION":12.6954,"RA_OF_ASC_NODE":75.9684,"ARG_OF_PERICENTER":230.0856,"MEAN_ANOMALY":80.3481,"EPHEMERIS_TYPE":0,"CLASSIFICATION_TYPE":"U","NORAD_CAT_ID":52973,"ELEMENT_SET_NO":999,"REV_AT_EPOCH":2880,"BSTAR":0,"MEAN_MOTION_DOT":-8.4e-7,"MEAN_MOTION_DDOT":0},{"OBJECT_NAME":"TIANLIAN 2-03","OBJECT_ID":"2022-078A","EPOCH":"2026-03-15T05:05:47.137632","MEAN_MOTION":1.00271155,"ECCENTRICITY":0.00032928,"INCLINATION":0.4326,"RA_OF_ASC_NODE":73.625,"ARG_OF_PERICENTER":257.9513,"MEAN_ANOMALY":288.2328,"EPHEMERIS_TYPE":0,"CLASSIFICATION_TYPE":"U","NORAD_CAT_ID":53100,"ELEMENT_SET_NO":999,"REV_AT_EPOCH":1360,"BSTAR":0,"MEAN_MOTION_DOT":7.1e-7,"MEAN_MOTION_DDOT":0},{"OBJECT_NAME":"SBIRS GEO-6 (USA 336)","OBJECT_ID":"2022-092A","EPOCH":"2026-03-15T05:42:28.620000","MEAN_MOTION":1.00271327,"ECCENTRICITY":0.00020362,"INCLINATION":3.4201,"RA_OF_ASC_NODE":315.9713,"ARG_OF_PERICENTER":38.8403,"MEAN_ANOMALY":42.6333,"EPHEMERIS_TYPE":0,"CLASSIFICATION_TYPE":"U","NORAD_CAT_ID":53355,"ELEMENT_SET_NO":999,"REV_AT_EPOCH":1329,"BSTAR":0,"MEAN_MOTION_DOT":-2.94e-6,"MEAN_MOTION_DDOT":0},{"OBJECT_NAME":"EUTELSAT KONNECT VHTS","OBJECT_ID":"2022-110A","EPOCH":"2026-03-15T05:03:32.352768","MEAN_MOTION":1.00269379,"ECCENTRICITY":0.00028319,"INCLINATION":0.0579,"RA_OF_ASC_NODE":104.1049,"ARG_OF_PERICENTER":226.3647,"MEAN_ANOMALY":280.9193,"EPHEMERIS_TYPE":0,"CLASSIFICATION_TYPE":"U","NORAD_CAT_ID":53765,"ELEMENT_SET_NO":999,"REV_AT_EPOCH":589,"BSTAR":0,"MEAN_MOTION_DOT":1.6e-7,"MEAN_MOTION_DDOT":0},{"OBJECT_NAME":"ARIANE 5 R/B","OBJECT_ID":"2022-110B","EPOCH":"2026-03-15T00:12:34.413696","MEAN_MOTION":1.54474321,"ECCENTRICITY":0.79194683,"INCLINATION":4.4836,"RA_OF_ASC_NODE":231.8728,"ARG_OF_PERICENTER":22.3908,"MEAN_ANOMALY":358.2792,"EPHEMERIS_TYPE":0,"CLASSIFICATION_TYPE":"U","NORAD_CAT_ID":53766,"ELEMENT_SET_NO":999,"REV_AT_EPOCH":1017,"BSTAR":0.00031991671,"MEAN_MOTION_DOT":2.837e-5,"MEAN_MOTION_DDOT":-8.01483e-7},{"OBJECT_NAME":"ZHONGXING-1E","OBJECT_ID":"2022-112A","EPOCH":"2026-03-12T19:14:40.469856","MEAN_MOTION":1.00274038,"ECCENTRICITY":0.00025683,"INCLINATION":0.0554,"RA_OF_ASC_NODE":305.0129,"ARG_OF_PERICENTER":354.3662,"MEAN_ANOMALY":241.1166,"EPHEMERIS_TYPE":0,"CLASSIFICATION_TYPE":"U","NORAD_CAT_ID":53813,"ELEMENT_SET_NO":999,"REV_AT_EPOCH":1288,"BSTAR":0,"MEAN_MOTION_DOT":-1.5e-6,"MEAN_MOTION_DDOT":0},{"OBJECT_NAME":"SES-20","OBJECT_ID":"2022-123A","EPOCH":"2026-03-13T21:45:03.342816","MEAN_MOTION":1.00270457,"ECCENTRICITY":0.00017204,"INCLINATION":0.0192,"RA_OF_ASC_NODE":104.9887,"ARG_OF_PERICENTER":326.8603,"MEAN_ANOMALY":322.8278,"EPHEMERIS_TYPE":0,"CLASSIFICATION_TYPE":"U","NORAD_CAT_ID":53960,"ELEMENT_SET_NO":999,"REV_AT_EPOCH":1257,"BSTAR":0,"MEAN_MOTION_DOT":-1.01e-6,"MEAN_MOTION_DDOT":0},{"OBJECT_NAME":"SES-21","OBJECT_ID":"2022-123B","EPOCH":"2026-03-15T06:08:11.152896","MEAN_MOTION":1.00270508,"ECCENTRICITY":0.00010631,"INCLINATION":0.0288,"RA_OF_ASC_NODE":67.4686,"ARG_OF_PERICENTER":280.5175,"MEAN_ANOMALY":145.9027,"EPHEMERIS_TYPE":0,"CLASSIFICATION_TYPE":"U","NORAD_CAT_ID":53961,"ELEMENT_SET_NO":999,"REV_AT_EPOCH":627,"BSTAR":0,"MEAN_MOTION_DOT":6.9e-7,"MEAN_MOTION_DDOT":0},{"OBJECT_NAME":"GALAXY 33 (G-33)","OBJECT_ID":"2022-128A","EPOCH":"2026-03-13T09:34:38.587872","MEAN_MOTION":1.00271687,"ECCENTRICITY":0.00017947,"INCLINATION":0.0138,"RA_OF_ASC_NODE":105.0382,"ARG_OF_PERICENTER":258.0759,"MEAN_ANOMALY":178.5705,"EPHEMERIS_TYPE":0,"CLASSIFICATION_TYPE":"U","NORAD_CAT_ID":54026,"ELEMENT_SET_NO":999,"REV_AT_EPOCH":1278,"BSTAR":0,"MEAN_MOTION_DOT":7.9e-7,"MEAN_MOTION_DDOT":0}]
